$$SOE
2460728.500000000, A.D. 2025-Feb-22 00:00:00.0000, 5.128181917248498E+07, 2.585070317280531E+08, -4.421504317846419E+07,
2460735.500000000, A.D. 2025-Mar-01 00:00:00.0000, 3.800790369526714E+07, 2.606737206389560E+08, -4.814268636428224E+07,
2460742.500000000, A.D. 2025-Mar-08 00:00:00.0000, 2.463792054222756E+07, 2.621817482030091E+08, -5.194866115613528E+07,
2460749.500000000, A.D. 2025-Mar-15 00:00:00.0000, 1.120609015322666E+07, 2.630318730022643E+08, -5.562425428611273E+07,
2460756.500000000, A.D. 2025-Mar-22 00:00:00.0000, -2.253665668950305E+06, 2.632268828084646E+08, -5.916128082201668E+07,
2460763.500000000, A.D. 2025-Mar-29 00:00:00.0000, -1.570786309552015E+07, 2.627715266520967E+08, -6.255210546350259E+07,
2460770.500000000, A.D. 2025-Apr-05 00:00:00.0000, -2.912358516177635E+07, 2.616724375927212E+08, -6.578965937705911E+07,
2460777.500000000, A.D. 2025-Apr-12 00:00:00.0000, -4.246860129644699E+07, 2.599380476436633E+08, -6.886745247202003E+07,
2460784.500000000, A.D. 2025-Apr-19 00:00:00.0000, -5.571147704636547E+07, 2.575784953528274E+08, -7.177958131487037E+07,
2460791.500000000, A.D. 2025-Apr-26 00:00:00.0000, -6.882167328813557E+07, 2.546055272335063E+08, -7.452073292042685E+07,
2460798.500000000, A.D. 2025-May-03 00:00:00.0000, -8.176963456082097E+07, 2.510323944422262E+08, -7.708618467057583E+07,
2460805.500000000, A.D. 2025-May-10 00:00:00.0000, -9.452686641238627E+07, 2.468737460450083E+08, -7.947180063953303E+07,
2460812.500000000, A.D. 2025-May-17 00:00:00.0000, -1.070660018036510E+08, 2.421455200975846E+08, -8.167402463586181E+07,
2460819.500000000, A.D. 2025-May-24 00:00:00.0000, -1.193608566185742E+08, 2.368648336683812E+08, -8.368987030320445E+07,
2460826.500000000, A.D. 2025-May-31 00:00:00.0000, -1.313864742103434E+08, 2.310498732019454E+08, -8.551690862451568E+07,
2460833.500000000, A.D. 2025-Jun-07 00:00:00.0000, -1.431191598390506E+08, 2.247197874104417E+08, -8.715325303203015E+07,
2460840.500000000, A.D. 2025-Jun-14 00:00:00.0000, -1.545365079041609E+08, 2.178945829045551E+08, -8.859754230037287E+07,
2460847.500000000, A.D. 2025-Jun-21 00:00:00.0000, -1.656174213455169E+08, 2.105950200512713E+08, -8.984892192450252E+07,
2460854.500000000, A.D. 2025-Jun-28 00:00:00.0000, -1.763421207331406E+08, 2.028425114524213E+08, -9.090702442501459E+07,
2460861.500000000, A.D. 2025-Jul-05 00:00:00.0000, -1.866921452590761E+08, 1.946590257342500E+08, -9.177194856686880E+07,
2460868.500000000, A.D. 2025-Jul-12 00:00:00.0000, -1.966503475212285E+08, 1.860669962785630E+08, -9.244423773169252E+07,
2460875.500000000, A.D. 2025-Jul-19 00:00:00.0000, -2.062008826075613E+08, 1.770892346473177E+08, -9.292485776121959E+07,
2460882.500000000, A.D. 2025-Jul-26 00:00:00.0000, -2.153291919645219E+08, 1.677488488763285E+08, -9.321517452602166E+07,
2460889.500000000, A.D. 2025-Aug-02 00:00:00.0000, -2.240219826616856E+08, 1.580691668089575E+08, -9.331693143215819E+07,
2460896.500000000, A.D. 2025-Aug-09 00:00:00.0000, -2.322672026808693E+08, 1.480736645295622E+08, -9.323222705445133E+07,
2460903.500000000, A.D. 2025-Aug-16 00:00:00.0000, -2.400540127722954E+08, 1.377858998413875E+08, -9.296349307079002E+07,
2460910.500000000, A.D. 2025-Aug-23 00:00:00.0000, -2.473727551677269E+08, 1.272294507552312E+08, -9.251347266239347E+07,
2460917.500000000, A.D. 2025-Aug-30 00:00:00.0000, -2.542149193639530E+08, 1.164278596024635E+08, -9.188519946942234E+07,
2460924.500000000, A.D. 2025-Sep-06 00:00:00.0000, -2.605731068970167E+08, 1.054045836294357E+08, -9.108197698861423E+07,
2460931.500000000, A.D. 2025-Sep-13 00:00:00.0000, -2.664409972420241E+08, 9.418294941606282E+07, -9.010735854700464E+07,
2460938.500000000, A.D. 2025-Sep-20 00:00:00.0000, -2.718133119817707E+08, 8.278610927956203E+07, -8.896512835208511E+07,
2460945.500000000, A.D. 2025-Sep-27 00:00:00.0000, -2.766857765500084E+08, 7.123700255287556E+07, -8.765928350143626E+07,
2460952.500000000, A.D. 2025-Oct-04 00:00:00.0000, -2.810550818986052E+08, 5.955832203111434E+07, -8.619401675418949E+07,
2460959.500000000, A.D. 2025-Oct-11 00:00:00.0000, -2.849188467640644E+08, 4.777248439600142E+07, -8.457370013567749E+07,
2460966.500000000, A.D. 2025-Oct-18 00:00:00.0000, -2.882755805096474E+08, 3.590160409859543E+07, -8.280286943844439E+07,
2460973.500000000, A.D. 2025-Oct-25 00:00:00.0000, -2.911246466238219E+08, 2.396747046435300E+07, -8.088620963138956E+07,
2460980.500000000, A.D. 2025-Nov-01 00:00:00.0000, -2.934662270197183E+08, 1.199152778970708E+07, -7.882854116676740E+07,
2460987.500000000, A.D. 2025-Nov-08 00:00:00.0000, -2.953012872508032E+08, -5.141847459908575E+03, -7.663480716726981E+07,
2460994.500000000, A.D. 2025-Nov-15 00:00:00.0000, -2.966315426160731E+08, -1.200183337041376E+07, -7.431006148277211E+07,
2461001.500000000, A.D. 2025-Nov-22 00:00:00.0000, -2.974594248539206E+08, -2.397823110619199E+07, -7.185945760954861E+07,
2461008.500000000, A.D. 2025-Nov-29 00:00:00.0000, -2.977880496655989E+08, -3.591441790921679E+07, -6.928823834381102E+07,
2461015.500000000, A.D. 2025-Dec-06 00:00:00.0000, -2.976211874183973E+08, -4.779088136087080E+07, -6.660172595056236E+07,
2461022.500000000, A.D. 2025-Dec-13 00:00:00.0000, -2.969632366525858E+08, -5.958852061814652E+07, -6.380531313772850E+07,
2461029.500000000, A.D. 2025-Dec-20 00:00:00.0000, -2.958191969380043E+08, -7.128865307480782E+07, -6.090445503951229E+07,
2461036.500000000, A.D. 2025-Dec-27 00:00:00.0000, -2.941946421673195E+08, -8.287301841876130E+07, -5.790466185654432E+07,
2461043.500000000, A.D. 2026-Jan-03 00:00:00.0000, -2.920956957399777E+08, -9.432378087363039E+07, -5.481149202504415E+07,
2461050.500000000, A.D. 2026-Jan-10 00:00:00.0000, -2.895290075179049E+08, -1.056235304715409E+08, -5.163054594147968E+07,
2461057.500000000, A.D. 2026-Jan-17 00:00:00.0000, -2.865017323087139E+08, -1.167552836037746E+08, -4.836746023532503E+07,
2461064.500000000, A.D. 2026-Jan-24 00:00:00.0000, -2.830215097783689E+08, -1.277024829681403E+08, -4.502790255789419E+07,
2461071.500000000, A.D. 2026-Jan-31 00:00:00.0000, -2.790964457409884E+08, -1.384489970522792E+08, -4.161756685212871E+07,
2461078.500000000, A.D. 2026-Feb-07 00:00:00.0000, -2.747350947295595E+08, -1.489791193337650E+08, -3.814216907658496E+07,
2461085.500000000, A.D. 2026-Feb-14 00:00:00.0000, -2.699464435556898E+08, -1.592775673274334E+08, -3.460744337206927E+07,
2461092.500000000, A.D. 2026-Feb-21 00:00:00.0000, -2.647398954282643E+08, -1.693294810095946E+08, -3.101913862412506E+07,
2461099.500000000, A.D. 2026-Feb-28 00:00:00.0000, -2.591252556687990E+08, -1.791204195643116E+08, -2.738301519314358E+07,
2461106.500000000, A.D. 2026-Mar-07 00:00:00.0000, -2.531127210315716E+08, -1.886363584952731E+08, -2.370484174963052E+07,
2461113.500000000, A.D. 2026-Mar-14 00:00:00.0000, -2.467128698042957E+08, -1.978636895268275E+08, -1.999039262884553E+07,
2461120.500000000, A.D. 2026-Mar-21 00:00:00.0000, -2.399366508595587E+08, -2.067892204800140E+08, -1.624544560073838E+07,
2461127.500000000, A.D. 2026-Mar-28 00:00:00.0000, -2.327953736151465E+08, -2.154001741688447E+08, -1.247577975513837E+07,
2461134.500000000, A.D. 2026-Apr-04 00:00:00.0000, -2.253006994498467E+08, -2.236841873501774E+08, -8.687173494414672E+06,
2461141.500000000, A.D. 2026-Apr-11 00:00:00.0000, -2.174646342409940E+08, -2.316293101542099E+08, -4.885402658702970E+06,
2461148.500000000, A.D. 2026-Apr-18 00:00:00.0000, -2.092995218077212E+08, -2.392240060701081E+08, -1.076238770880595E+06,
2461155.500000000, A.D. 2026-Apr-25 00:00:00.0000, -2.008180381611090E+08, -2.464571525357338E+08, 2.734552624161184E+06,
2461162.500000000, A.D. 2026-May-02 00:00:00.0000, -1.920331864769643E+08, -2.533180422175379E+08, 6.541213550163001E+06,
2461169.500000000, A.D. 2026-May-09 00:00:00.0000, -1.829582926100693E+08, -2.597963850967402E+08, 1.033799513276850E+07,
2461176.500000000, A.D. 2026-May-16 00:00:00.0000, -1.736070007118077E+08, -2.658823112675372E+08, 1.411915908074830E+07,
2461183.500000000, A.D. 2026-May-23 00:00:00.0000, -1.639932688340830E+08, -2.715663734638614E+08, 1.787897922089806E+07,
2461190.500000000, A.D. 2026-May-30 00:00:00.0000, -1.541313665255942E+08, -2.768395490316503E+08, 2.161174332772705E+07,
2461197.500000000, A.D. 2026-Jun-06 00:00:00.0000, -1.440358746601055E+08, -2.816932446616066E+08, 2.531175503185302E+07,
2461204.500000000, A.D. 2026-Jun-13 00:00:00.0000, -1.337216837554849E+08, -2.861193037346708E+08, 2.897333551037364E+07,
2461211.500000000, A.D. 2026-Jun-20 00:00:00.0000, -1.232039912146501E+08, -2.901100134075248E+08, 3.259082527077200E+07,
2461218.500000000, A.D. 2026-Jun-27 00:00:00.0000, -1.124982991185557E+08, -2.936581118258709E+08, 3.615858618571800E+07,
2461225.500000000, A.D. 2026-Jul-04 00:00:00.0000, -1.016204125010550E+08, -2.967567962806029E+08, 3.967100374624339E+07,
2461232.500000000, A.D. 2026-Jul-11 00:00:00.0000, -9.058643777570510E+07, -2.993997324724029E+08, 4.312248952995585E+07,
2461239.500000000, A.D. 2026-Jul-18 00:00:00.0000, -7.941278113904767E+07, -3.015810648903975E+08, 4.650748390868863E+07,
2461246.500000000, A.D. 2026-Jul-25 00:00:00.0000, -6.811614684031057E+07, -3.032954283326703E+08, 4.982045902588779E+07,
2461253.500000000, A.D. 2026-Aug-01 00:00:00.0000, -5.671353518287569E+07, -3.045379606400679E+08, 5.305592206804653E+07,
2461260.500000000, A.D. 2026-Aug-08 00:00:00.0000, -4.522223994964156E+07, -3.053043166900162E+08, 5.620841883657786E+07,
2461267.500000000, A.D. 2026-Aug-15 00:00:00.0000, -3.365984473014521E+07, -3.055906832032264E+08, 5.927253764292227E+07,
2461274.500000000, A.D. 2026-Aug-22 00:00:00.0000, -2.204421878865218E+07, -3.053937931487225E+08, 6.224291372001826E+07,
2461281.500000000, A.D. 2026-Aug-29 00:00:00.0000, -1.039351463344556E+07, -3.047109411343066E+08, 6.511423427677102E+07,
2461288.500000000, A.D. 2026-Sep-05 00:00:00.0000, 1.273834974662925E+06, -3.035400026676686E+08, 6.788124380153817E+07,
$$EOE